{
    "links": {
        "self": "http://www.neowsapp.com/rest/v1/neo/3841830?api_key=iIulBulltgU6a56xZRHN4H3l9WmuAYTsLGpBGhQ2"
    },
    "id": "3841830",
    "neo_reference_id": "3841830",
    "name": "(2019 JC5)",
    "designation": "2019 JC5",
    "nasa_jpl_url": "http://ssd.jpl.nasa.gov/sbdb.cgi?sstr=3841830",
    "absolute_magnitude_h": 24.0,
    "estimated_diameter": {
        "kilometers": {
            "estimated_diameter_min": 0.0421264611,
            "estimated_diameter_max": 0.0941976306
        },
        "meters": {
            "estimated_diameter_min": 42.1264610556,
            "estimated_diameter_max": 94.1976305719
        },
        "miles": {
            "estimated_diameter_min": 0.0261761612,
            "estimated_diameter_max": 0.0585316759
        },
        "feet": {
            "estimated_diameter_min": 138.2101784897,
            "estimated_diameter_max": 309.0473542854
        }
    },
    "is_potentially_hazardous_asteroid": false,
    "close_approach_data": [
        {
            "close_approach_date": "2019-05-09",
            "close_approach_date_full": "2019-May-09 04:56",
            "epoch_date_close_approach": 1557377760000,
            "relative_velocity": {
                "kilometers_per_second": "9.0542436447",
                "kilometers_per_hour": "32595.2771210878",
                "miles_per_hour": "20253.4376089337"
            },
            "miss_distance": {
                "astronomical": "0.1320583227",
                "lunar": "51.3706875303",
                "kilometers": "19755643.791692649",
                "miles": "12275587.8255865962"
            },
            "orbiting_body": "Earth"
        }
    ],
    "orbital_data": {
        "orbit_id": "1",
        "orbit_determination_date": "2019-05-12 10:42:05",
        "first_observation_date": "2019-05-08",
        "last_observation_date": "2019-05-11",
        "data_arc_in_days": 3,
        "observations_used": 9,
        "orbit_uncertainty": "9",
        "minimum_orbit_intersection": ".120189",
        "jupiter_tisserand_invariant": "4.864",
        "epoch_osculation": "2458611.5",
        "eccentricity": ".1549028154728439",
        "semi_major_axis": "1.33113733522614",
        "inclination": "17.11360042873897",
        "ascending_node_longitude": "50.38073478670891",
        "orbital_period": "560.9610711120717",
        "perihelion_distance": "1.124940414218592",
        "perihelion_argument": "164.3035729287744",
        "aphelion_distance": "1.537334256233688",
        "perihelion_time": "2458601.031312723607",
        "mean_anomaly": "6.718340386847528",
        "mean_motion": ".6417557626348679",
        "equinox": "J2000",
        "orbit_class": {
            "orbit_class_type": "AMO",
            "orbit_class_description": "Near-Earth asteroid orbits similar to that of 1221 Amor",
            "orbit_class_range": "1.017 AU < q (perihelion) < 1.3 AU"
        }
    },
    "is_sentry_object": false
}